{
  "type": "FeatureCollection",
  "features": [
    {
      "type": "Feature",
      "geometry": {
        "type": "Point",
        "coordinates": [
          85.8245,
          20.2961
        ]
      },
      "properties": {
        "asset_id": "PL-0101",
        "name": "Old Teak Pole Near Market",
        "asset_type": "pole",
        "latitude": 20.2961,
        "longitude": 85.8245,
        "elevation_m": 42.0,
        "surveyed_on": "2026-09-10",
        "surveyor": "Ramesh Patel",
        "status": "active",
        "condition_score": 6,
        "attributes": {
          "height_m": 9.5,
          "material": "concrete"
        },
        "condition_band": "FAIR"
      }
    },
    {
      "type": "Feature",
      "geometry": {
        "type": "Point",
        "coordinates": [
          85.819,
          20.3012
        ]
      },
      "properties": {
        "asset_id": "PL-0102",
        "name": "Feeder Pole At Jaydev Vihar",
        "asset_type": "pole",
        "latitude": 20.3012,
        "longitude": 85.819,
        "elevation_m": null,
        "surveyed_on": "2026-09-10",
        "surveyor": "Ramesh Patel",
        "status": "active",
        "condition_score": 8,
        "attributes": {
          "height_m": 11.0,
          "material": "steel"
        },
        "condition_band": "GOOD"
      }
    },
    {
      "type": "Feature",
      "geometry": {
        "type": "Point",
        "coordinates": [
          85.8311,
          20.2888
        ]
      },
      "properties": {
        "asset_id": "PL-0103",
        "name": "Pole Beside School Wall",
        "asset_type": "pole",
        "latitude": 20.2888,
        "longitude": 85.8311,
        "elevation_m": 39.4,
        "surveyed_on": "2026-09-11",
        "surveyor": "Ramesh Patel",
        "status": "active",
        "condition_score": 4,
        "attributes": {
          "height_m": 8.0,
          "material": "wood"
        },
        "condition_band": "POOR"
      }
    },
    {
      "type": "Feature",
      "geometry": {
        "type": "Point",
        "coordinates": [
          85.814,
          20.274
        ]
      },
      "properties": {
        "asset_id": "PL-0104",
        "name": "Distribution Pole 4 Nandankanan Road",
        "asset_type": "pole",
        "latitude": 20.274,
        "longitude": 85.814,
        "elevation_m": 40.4,
        "surveyed_on": "2026-09-12",
        "surveyor": "Anita Das",
        "status": "active",
        "condition_score": 5,
        "attributes": {
          "height_m": 9.0,
          "material": "concrete"
        },
        "condition_band": "FAIR"
      }
    },
    {
      "type": "Feature",
      "geometry": {
        "type": "Point",
        "coordinates": [
          85.815,
          20.275
        ]
      },
      "properties": {
        "asset_id": "PL-0105",
        "name": "Distribution Pole 5 Nandankanan Road",
        "asset_type": "pole",
        "latitude": 20.275,
        "longitude": 85.815,
        "elevation_m": null,
        "surveyed_on": "2026-09-11",
        "surveyor": "Anita Das",
        "status": "active",
        "condition_score": 6,
        "attributes": {
          "height_m": 9.0,
          "material": "concrete"
        },
        "condition_band": "FAIR"
      }
    },
    {
      "type": "Feature",
      "geometry": {
        "type": "Point",
        "coordinates": [
          85.816,
          20.276
        ]
      },
      "properties": {
        "asset_id": "PL-0106",
        "name": "Distribution Pole 6 Nandankanan Road",
        "asset_type": "pole",
        "latitude": 20.276,
        "longitude": 85.816,
        "elevation_m": 40.6,
        "surveyed_on": "2026-09-12",
        "surveyor": "Anita Das",
        "status": "active",
        "condition_score": 7,
        "attributes": {
          "height_m": 9.0,
          "material": "concrete"
        },
        "condition_band": "FAIR"
      }
    },
    {
      "type": "Feature",
      "geometry": {
        "type": "Point",
        "coordinates": [
          85.817,
          20.277
        ]
      },
      "properties": {
        "asset_id": "PL-0107",
        "name": "Distribution Pole 7 Nandankanan Road",
        "asset_type": "pole",
        "latitude": 20.277,
        "longitude": 85.817,
        "elevation_m": 40.7,
        "surveyed_on": "2026-09-11",
        "surveyor": "Anita Das",
        "status": "active",
        "condition_score": 8,
        "attributes": {
          "height_m": 9.0,
          "material": "concrete"
        },
        "condition_band": "GOOD"
      }
    },
    {
      "type": "Feature",
      "geometry": {
        "type": "Point",
        "coordinates": [
          85.818,
          20.278
        ]
      },
      "properties": {
        "asset_id": "PL-0108",
        "name": "Distribution Pole 8 Nandankanan Road",
        "asset_type": "pole",
        "latitude": 20.278,
        "longitude": 85.818,
        "elevation_m": 40.8,
        "surveyed_on": "2026-09-12",
        "surveyor": "Anita Das",
        "status": "active",
        "condition_score": 9,
        "attributes": {
          "height_m": 9.0,
          "material": "concrete"
        },
        "condition_band": "GOOD"
      }
    },
    {
      "type": "Feature",
      "geometry": {
        "type": "Point",
        "coordinates": [
          85.819,
          20.279
        ]
      },
      "properties": {
        "asset_id": "PL-0109",
        "name": "Distribution Pole 9 Nandankanan Road",
        "asset_type": "pole",
        "latitude": 20.279,
        "longitude": 85.819,
        "elevation_m": 40.9,
        "surveyed_on": "2026-09-11",
        "surveyor": "Anita Das",
        "status": "proposed",
        "condition_score": 1,
        "attributes": {
          "height_m": 9.0,
          "material": "concrete"
        },
        "condition_band": "CRITICAL"
      }
    },
    {
      "type": "Feature",
      "geometry": {
        "type": "Point",
        "coordinates": [
          85.82,
          20.28
        ]
      },
      "properties": {
        "asset_id": "PL-0110",
        "name": "Distribution Pole 10 Nandankanan Road",
        "asset_type": "pole",
        "latitude": 20.28,
        "longitude": 85.82,
        "elevation_m": null,
        "surveyed_on": "2026-09-12",
        "surveyor": "Anita Das",
        "status": "proposed",
        "condition_score": 2,
        "attributes": {
          "height_m": 9.0,
          "material": "concrete"
        },
        "condition_band": "CRITICAL"
      }
    },
    {
      "type": "Feature",
      "geometry": {
        "type": "Point",
        "coordinates": [
          85.821,
          20.281
        ]
      },
      "properties": {
        "asset_id": "PL-0111",
        "name": "Distribution Pole 11 Nandankanan Road",
        "asset_type": "pole",
        "latitude": 20.281,
        "longitude": 85.821,
        "elevation_m": 41.1,
        "surveyed_on": "2026-09-11",
        "surveyor": "Anita Das",
        "status": "active",
        "condition_score": 3,
        "attributes": {
          "height_m": 9.0,
          "material": "concrete"
        },
        "condition_band": "POOR"
      }
    },
    {
      "type": "Feature",
      "geometry": {
        "type": "Point",
        "coordinates": [
          85.822,
          20.282
        ]
      },
      "properties": {
        "asset_id": "PL-0112",
        "name": "Distribution Pole 12 Nandankanan Road",
        "asset_type": "pole",
        "latitude": 20.282,
        "longitude": 85.822,
        "elevation_m": 41.2,
        "surveyed_on": "2026-09-12",
        "surveyor": "Anita Das",
        "status": "active",
        "condition_score": 4,
        "attributes": {
          "height_m": 9.0,
          "material": "concrete"
        },
        "condition_band": "POOR"
      }
    },
    {
      "type": "Feature",
      "geometry": {
        "type": "Point",
        "coordinates": [
          85.823,
          20.283
        ]
      },
      "properties": {
        "asset_id": "PL-0113",
        "name": "Distribution Pole 13 Nandankanan Road",
        "asset_type": "pole",
        "latitude": 20.283,
        "longitude": 85.823,
        "elevation_m": 41.3,
        "surveyed_on": "2026-09-11",
        "surveyor": "Anita Das",
        "status": "active",
        "condition_score": 5,
        "attributes": {
          "height_m": 9.0,
          "material": "concrete"
        },
        "condition_band": "FAIR"
      }
    },
    {
      "type": "Feature",
      "geometry": {
        "type": "Point",
        "coordinates": [
          85.824,
          20.284
        ]
      },
      "properties": {
        "asset_id": "PL-0114",
        "name": "Distribution Pole 14 Nandankanan Road",
        "asset_type": "pole",
        "latitude": 20.284,
        "longitude": 85.824,
        "elevation_m": 41.4,
        "surveyed_on": "2026-09-12",
        "surveyor": "Anita Das",
        "status": "active",
        "condition_score": 6,
        "attributes": {
          "height_m": 9.0,
          "material": "concrete"
        },
        "condition_band": "FAIR"
      }
    },
    {
      "type": "Feature",
      "geometry": {
        "type": "Point",
        "coordinates": [
          85.825,
          20.285
        ]
      },
      "properties": {
        "asset_id": "PL-0115",
        "name": "Distribution Pole 15 Nandankanan Road",
        "asset_type": "pole",
        "latitude": 20.285,
        "longitude": 85.825,
        "elevation_m": null,
        "surveyed_on": "2026-09-11",
        "surveyor": "Anita Das",
        "status": "active",
        "condition_score": 7,
        "attributes": {
          "height_m": 9.0,
          "material": "concrete"
        },
        "condition_band": "FAIR"
      }
    },
    {
      "type": "Feature",
      "geometry": {
        "type": "Point",
        "coordinates": [
          85.826,
          20.286
        ]
      },
      "properties": {
        "asset_id": "PL-0116",
        "name": "Distribution Pole 16 Nandankanan Road",
        "asset_type": "pole",
        "latitude": 20.286,
        "longitude": 85.826,
        "elevation_m": 41.6,
        "surveyed_on": "2026-09-12",
        "surveyor": "Anita Das",
        "status": "active",
        "condition_score": 8,
        "attributes": {
          "height_m": 9.0,
          "material": "concrete"
        },
        "condition_band": "GOOD"
      }
    },
    {
      "type": "Feature",
      "geometry": {
        "type": "Point",
        "coordinates": [
          85.827,
          20.287
        ]
      },
      "properties": {
        "asset_id": "PL-0117",
        "name": "Distribution Pole 17 Nandankanan Road",
        "asset_type": "pole",
        "latitude": 20.287,
        "longitude": 85.827,
        "elevation_m": 41.7,
        "surveyed_on": "2026-09-11",
        "surveyor": "Anita Das",
        "status": "active",
        "condition_score": 9,
        "attributes": {
          "height_m": 9.0,
          "material": "concrete"
        },
        "condition_band": "GOOD"
      }
    },
    {
      "type": "Feature",
      "geometry": {
        "type": "Point",
        "coordinates": [
          85.828,
          20.288
        ]
      },
      "properties": {
        "asset_id": "PL-0118",
        "name": "Distribution Pole 18 Nandankanan Road",
        "asset_type": "pole",
        "latitude": 20.288,
        "longitude": 85.828,
        "elevation_m": 41.8,
        "surveyed_on": "2026-09-12",
        "surveyor": "Anita Das",
        "status": "proposed",
        "condition_score": 1,
        "attributes": {
          "height_m": 9.0,
          "material": "concrete"
        },
        "condition_band": "CRITICAL"
      }
    },
    {
      "type": "Feature",
      "geometry": {
        "type": "Point",
        "coordinates": [
          85.829,
          20.289
        ]
      },
      "properties": {
        "asset_id": "PL-0119",
        "name": "Distribution Pole 19 Nandankanan Road",
        "asset_type": "pole",
        "latitude": 20.289,
        "longitude": 85.829,
        "elevation_m": 41.9,
        "surveyed_on": "2026-09-11",
        "surveyor": "Anita Das",
        "status": "proposed",
        "condition_score": 2,
        "attributes": {
          "height_m": 9.0,
          "material": "concrete"
        },
        "condition_band": "CRITICAL"
      }
    },
    {
      "type": "Feature",
      "geometry": {
        "type": "Point",
        "coordinates": [
          85.83,
          20.29
        ]
      },
      "properties": {
        "asset_id": "PL-0120",
        "name": "Distribution Pole 20 Nandankanan Road",
        "asset_type": "pole",
        "latitude": 20.29,
        "longitude": 85.83,
        "elevation_m": null,
        "surveyed_on": "2026-09-12",
        "surveyor": "Anita Das",
        "status": "active",
        "condition_score": 3,
        "attributes": {
          "height_m": 9.0,
          "material": "concrete"
        },
        "condition_band": "POOR"
      }
    },
    {
      "type": "Feature",
      "geometry": {
        "type": "Point",
        "coordinates": [
          85.8012,
          20.2515
        ]
      },
      "properties": {
        "asset_id": "VL-0201",
        "name": "Isolation Valve Chamber 1",
        "asset_type": "valve",
        "latitude": 20.2515,
        "longitude": 85.8012,
        "elevation_m": 36.0,
        "surveyed_on": "2026-09-12",
        "surveyor": "S. Mohanty",
        "status": "active",
        "condition_score": 4,
        "attributes": {
          "bore_mm": 150,
          "turn_direction": "clockwise"
        },
        "condition_band": "POOR"
      }
    },
    {
      "type": "Feature",
      "geometry": {
        "type": "Point",
        "coordinates": [
          85.8024,
          20.253
        ]
      },
      "properties": {
        "asset_id": "VL-0202",
        "name": "Isolation Valve Chamber 2",
        "asset_type": "valve",
        "latitude": 20.253,
        "longitude": 85.8024,
        "elevation_m": 37.0,
        "surveyed_on": "2026-09-12",
        "surveyor": "S. Mohanty",
        "status": "active",
        "condition_score": 5,
        "attributes": {
          "bore_mm": 150,
          "turn_direction": "clockwise"
        },
        "condition_band": "FAIR"
      }
    },
    {
      "type": "Feature",
      "geometry": {
        "type": "Point",
        "coordinates": [
          85.8036,
          20.2545
        ]
      },
      "properties": {
        "asset_id": "VL-0203",
        "name": "Isolation Valve Chamber 3",
        "asset_type": "valve",
        "latitude": 20.2545,
        "longitude": 85.8036,
        "elevation_m": 38.0,
        "surveyed_on": "2026-09-12",
        "surveyor": "S. Mohanty",
        "status": "active",
        "condition_score": 6,
        "attributes": {
          "bore_mm": 150,
          "turn_direction": "clockwise"
        },
        "condition_band": "FAIR"
      }
    },
    {
      "type": "Feature",
      "geometry": {
        "type": "Point",
        "coordinates": [
          85.8048,
          20.256
        ]
      },
      "properties": {
        "asset_id": "VL-0204",
        "name": "Isolation Valve Chamber 4",
        "asset_type": "valve",
        "latitude": 20.256,
        "longitude": 85.8048,
        "elevation_m": 39.0,
        "surveyed_on": "2026-09-12",
        "surveyor": "S. Mohanty",
        "status": "decommissioned",
        "condition_score": 1,
        "attributes": {
          "bore_mm": 150,
          "turn_direction": "clockwise"
        },
        "condition_band": "CRITICAL"
      }
    },
    {
      "type": "Feature",
      "geometry": {
        "type": "Point",
        "coordinates": [
          85.806,
          20.2575
        ]
      },
      "properties": {
        "asset_id": "VL-0205",
        "name": "Isolation Valve Chamber 5",
        "asset_type": "valve",
        "latitude": 20.2575,
        "longitude": 85.806,
        "elevation_m": 40.0,
        "surveyed_on": "2026-09-12",
        "surveyor": "S. Mohanty",
        "status": "active",
        "condition_score": 8,
        "attributes": {
          "bore_mm": 150,
          "turn_direction": "clockwise"
        },
        "condition_band": "GOOD"
      }
    },
    {
      "type": "Feature",
      "geometry": {
        "type": "Point",
        "coordinates": [
          85.8072,
          20.259
        ]
      },
      "properties": {
        "asset_id": "VL-0206",
        "name": "Isolation Valve Chamber 6",
        "asset_type": "valve",
        "latitude": 20.259,
        "longitude": 85.8072,
        "elevation_m": 41.0,
        "surveyed_on": "2026-09-12",
        "surveyor": "S. Mohanty",
        "status": "active",
        "condition_score": 9,
        "attributes": {
          "bore_mm": 150,
          "turn_direction": "clockwise"
        },
        "condition_band": "GOOD"
      }
    },
    {
      "type": "Feature",
      "geometry": {
        "type": "Point",
        "coordinates": [
          85.8084,
          20.2605
        ]
      },
      "properties": {
        "asset_id": "VL-0207",
        "name": "Isolation Valve Chamber 7",
        "asset_type": "valve",
        "latitude": 20.2605,
        "longitude": 85.8084,
        "elevation_m": 42.0,
        "surveyed_on": "2026-09-12",
        "surveyor": "S. Mohanty",
        "status": "active",
        "condition_score": 3,
        "attributes": {
          "bore_mm": 150,
          "turn_direction": "clockwise"
        },
        "condition_band": "POOR"
      }
    },
    {
      "type": "Feature",
      "geometry": {
        "type": "Point",
        "coordinates": [
          85.8096,
          20.262
        ]
      },
      "properties": {
        "asset_id": "VL-0208",
        "name": "Isolation Valve Chamber 8",
        "asset_type": "valve",
        "latitude": 20.262,
        "longitude": 85.8096,
        "elevation_m": 43.0,
        "surveyed_on": "2026-09-12",
        "surveyor": "S. Mohanty",
        "status": "active",
        "condition_score": 3,
        "attributes": {
          "bore_mm": 150,
          "turn_direction": "clockwise"
        },
        "condition_band": "POOR"
      }
    },
    {
      "type": "Feature",
      "geometry": {
        "type": "Point",
        "coordinates": [
          85.8108,
          20.2635
        ]
      },
      "properties": {
        "asset_id": "VL-0209",
        "name": "Isolation Valve Chamber 9",
        "asset_type": "valve",
        "latitude": 20.2635,
        "longitude": 85.8108,
        "elevation_m": 44.0,
        "surveyed_on": "2026-09-12",
        "surveyor": "S. Mohanty",
        "status": "active",
        "condition_score": 3,
        "attributes": {
          "bore_mm": 150,
          "turn_direction": "clockwise"
        },
        "condition_band": "POOR"
      }
    },
    {
      "type": "Feature",
      "geometry": {
        "type": "Point",
        "coordinates": [
          85.812,
          20.265
        ]
      },
      "properties": {
        "asset_id": "VL-0210",
        "name": "Isolation Valve Chamber 10",
        "asset_type": "valve",
        "latitude": 20.265,
        "longitude": 85.812,
        "elevation_m": 45.0,
        "surveyed_on": "2026-09-12",
        "surveyor": "S. Mohanty",
        "status": "active",
        "condition_score": 3,
        "attributes": {
          "bore_mm": 150,
          "turn_direction": "clockwise"
        },
        "condition_band": "POOR"
      }
    },
    {
      "type": "Feature",
      "geometry": {
        "type": "Point",
        "coordinates": [
          85.8132,
          20.2665
        ]
      },
      "properties": {
        "asset_id": "VL-0211",
        "name": "Isolation Valve Chamber 11",
        "asset_type": "valve",
        "latitude": 20.2665,
        "longitude": 85.8132,
        "elevation_m": 46.0,
        "surveyed_on": "2026-09-12",
        "surveyor": "S. Mohanty",
        "status": "active",
        "condition_score": 4,
        "attributes": {
          "bore_mm": 150,
          "turn_direction": "clockwise"
        },
        "condition_band": "POOR"
      }
    },
    {
      "type": "Feature",
      "geometry": {
        "type": "Point",
        "coordinates": [
          85.8144,
          20.268
        ]
      },
      "properties": {
        "asset_id": "VL-0212",
        "name": "Isolation Valve Chamber 12",
        "asset_type": "valve",
        "latitude": 20.268,
        "longitude": 85.8144,
        "elevation_m": 47.0,
        "surveyed_on": "2026-09-12",
        "surveyor": "S. Mohanty",
        "status": "active",
        "condition_score": 5,
        "attributes": {
          "bore_mm": 150,
          "turn_direction": "clockwise"
        },
        "condition_band": "FAIR"
      }
    },
    {
      "type": "Feature",
      "geometry": {
        "type": "Point",
        "coordinates": [
          85.8409,
          20.3108
        ]
      },
      "properties": {
        "asset_id": "MH-0301",
        "name": "Ug Cable Chamber 1 Saheed Nagar",
        "asset_type": "manhole",
        "latitude": 20.3108,
        "longitude": 85.8409,
        "elevation_m": 41.2,
        "surveyed_on": "2026-09-13",
        "surveyor": "Bijay Sahu",
        "status": "active",
        "condition_score": 4,
        "attributes": {
          "depth_m": 2.1,
          "cover_type": "cast_iron"
        },
        "condition_band": "POOR"
      }
    },
    {
      "type": "Feature",
      "geometry": {
        "type": "Point",
        "coordinates": [
          85.8418,
          20.3116
        ]
      },
      "properties": {
        "asset_id": "MH-0302",
        "name": "Ug Cable Chamber 2 Saheed Nagar",
        "asset_type": "manhole",
        "latitude": 20.3116,
        "longitude": 85.8418,
        "elevation_m": 41.2,
        "surveyed_on": "2026-09-13",
        "surveyor": "Bijay Sahu",
        "status": "active",
        "condition_score": 5,
        "attributes": {
          "depth_m": 2.1,
          "cover_type": "cast_iron"
        },
        "condition_band": "FAIR"
      }
    },
    {
      "type": "Feature",
      "geometry": {
        "type": "Point",
        "coordinates": [
          85.8427,
          20.3124
        ]
      },
      "properties": {
        "asset_id": "MH-0303",
        "name": "Ug Cable Chamber 3 Saheed Nagar",
        "asset_type": "manhole",
        "latitude": 20.3124,
        "longitude": 85.8427,
        "elevation_m": 41.2,
        "surveyed_on": "2026-09-13",
        "surveyor": "Bijay Sahu",
        "status": "active",
        "condition_score": 6,
        "attributes": {
          "depth_m": 2.1,
          "cover_type": "cast_iron"
        },
        "condition_band": "FAIR"
      }
    },
    {
      "type": "Feature",
      "geometry": {
        "type": "Point",
        "coordinates": [
          85.8436,
          20.3132
        ]
      },
      "properties": {
        "asset_id": "MH-0304",
        "name": "Ug Cable Chamber 4 Saheed Nagar",
        "asset_type": "manhole",
        "latitude": 20.3132,
        "longitude": 85.8436,
        "elevation_m": 41.2,
        "surveyed_on": "2026-09-13",
        "surveyor": "Bijay Sahu",
        "status": "active",
        "condition_score": 7,
        "attributes": {
          "depth_m": 2.1,
          "cover_type": "cast_iron"
        },
        "condition_band": "FAIR"
      }
    },
    {
      "type": "Feature",
      "geometry": {
        "type": "Point",
        "coordinates": [
          85.8445,
          20.314
        ]
      },
      "properties": {
        "asset_id": "MH-0305",
        "name": "Ug Cable Chamber 5 Saheed Nagar",
        "asset_type": "manhole",
        "latitude": 20.314,
        "longitude": 85.8445,
        "elevation_m": 41.2,
        "surveyed_on": "2026-09-13",
        "surveyor": "Bijay Sahu",
        "status": "active",
        "condition_score": 8,
        "attributes": {
          "depth_m": 2.1,
          "cover_type": "cast_iron"
        },
        "condition_band": "GOOD"
      }
    },
    {
      "type": "Feature",
      "geometry": {
        "type": "Point",
        "coordinates": [
          85.8454,
          20.3148
        ]
      },
      "properties": {
        "asset_id": "MH-0306",
        "name": "Ug Cable Chamber 6 Saheed Nagar",
        "asset_type": "manhole",
        "latitude": 20.3148,
        "longitude": 85.8454,
        "elevation_m": 41.2,
        "surveyed_on": "2026-09-13",
        "surveyor": "Bijay Sahu",
        "status": "active",
        "condition_score": 9,
        "attributes": {
          "depth_m": 2.1,
          "cover_type": "cast_iron"
        },
        "condition_band": "GOOD"
      }
    },
    {
      "type": "Feature",
      "geometry": {
        "type": "Point",
        "coordinates": [
          85.8463,
          20.3156
        ]
      },
      "properties": {
        "asset_id": "MH-0307",
        "name": "Ug Cable Chamber 7 Saheed Nagar",
        "asset_type": "manhole",
        "latitude": 20.3156,
        "longitude": 85.8463,
        "elevation_m": 41.2,
        "surveyed_on": "2026-09-13",
        "surveyor": "Bijay Sahu",
        "status": "active",
        "condition_score": 3,
        "attributes": {
          "depth_m": 2.1,
          "cover_type": "cast_iron"
        },
        "condition_band": "POOR"
      }
    },
    {
      "type": "Feature",
      "geometry": {
        "type": "Point",
        "coordinates": [
          85.8472,
          20.3164
        ]
      },
      "properties": {
        "asset_id": "MH-0308",
        "name": "Ug Cable Chamber 8 Saheed Nagar",
        "asset_type": "manhole",
        "latitude": 20.3164,
        "longitude": 85.8472,
        "elevation_m": 41.2,
        "surveyed_on": "2026-09-13",
        "surveyor": "Bijay Sahu",
        "status": "active",
        "condition_score": 4,
        "attributes": {
          "depth_m": 2.1,
          "cover_type": "cast_iron"
        },
        "condition_band": "POOR"
      }
    },
    {
      "type": "Feature",
      "geometry": {
        "type": "Point",
        "coordinates": [
          85.8481,
          20.3172
        ]
      },
      "properties": {
        "asset_id": "MH-0309",
        "name": "Ug Cable Chamber 9 Saheed Nagar",
        "asset_type": "manhole",
        "latitude": 20.3172,
        "longitude": 85.8481,
        "elevation_m": 41.2,
        "surveyed_on": "2026-09-13",
        "surveyor": "Bijay Sahu",
        "status": "active",
        "condition_score": 5,
        "attributes": {
          "depth_m": 2.1,
          "cover_type": "cast_iron"
        },
        "condition_band": "FAIR"
      }
    },
    {
      "type": "Feature",
      "geometry": {
        "type": "Point",
        "coordinates": [
          85.849,
          20.318
        ]
      },
      "properties": {
        "asset_id": "MH-0310",
        "name": "Ug Cable Chamber 10 Saheed Nagar",
        "asset_type": "manhole",
        "latitude": 20.318,
        "longitude": 85.849,
        "elevation_m": 41.2,
        "surveyed_on": "2026-09-13",
        "surveyor": "Bijay Sahu",
        "status": "active",
        "condition_score": 6,
        "attributes": {
          "depth_m": 2.1,
          "cover_type": "cast_iron"
        },
        "condition_band": "FAIR"
      }
    },
    {
      "type": "Feature",
      "geometry": {
        "type": "Point",
        "coordinates": [
          85.7913,
          20.3411
        ]
      },
      "properties": {
        "asset_id": "TR-0401",
        "name": "Distribution Transformer 1 Patia",
        "asset_type": "transformer",
        "latitude": 20.3411,
        "longitude": 85.7913,
        "elevation_m": 48.0,
        "surveyed_on": "2026-09-14",
        "surveyor": "Anita Das",
        "status": "active",
        "condition_score": 6,
        "attributes": {
          "kva": 250,
          "phase": 3
        },
        "condition_band": "FAIR"
      }
    },
    {
      "type": "Feature",
      "geometry": {
        "type": "Point",
        "coordinates": [
          85.7926,
          20.3422
        ]
      },
      "properties": {
        "asset_id": "TR-0402",
        "name": "Distribution Transformer 2 Patia",
        "asset_type": "transformer",
        "latitude": 20.3422,
        "longitude": 85.7926,
        "elevation_m": 48.0,
        "surveyed_on": "2026-09-14",
        "surveyor": "Anita Das",
        "status": "active",
        "condition_score": 7,
        "attributes": {
          "kva": 250,
          "phase": 3
        },
        "condition_band": "FAIR"
      }
    },
    {
      "type": "Feature",
      "geometry": {
        "type": "Point",
        "coordinates": [
          85.7939,
          20.3433
        ]
      },
      "properties": {
        "asset_id": "TR-0403",
        "name": "Distribution Transformer 3 Patia",
        "asset_type": "transformer",
        "latitude": 20.3433,
        "longitude": 85.7939,
        "elevation_m": 48.0,
        "surveyed_on": "2026-09-14",
        "surveyor": "Anita Das",
        "status": "active",
        "condition_score": 8,
        "attributes": {
          "kva": 250,
          "phase": 3
        },
        "condition_band": "GOOD"
      }
    },
    {
      "type": "Feature",
      "geometry": {
        "type": "Point",
        "coordinates": [
          85.7952,
          20.3444
        ]
      },
      "properties": {
        "asset_id": "TR-0404",
        "name": "Distribution Transformer 4 Patia",
        "asset_type": "transformer",
        "latitude": 20.3444,
        "longitude": 85.7952,
        "elevation_m": 48.0,
        "surveyed_on": "2026-09-14",
        "surveyor": "Anita Das",
        "status": "active",
        "condition_score": 9,
        "attributes": {
          "kva": 250,
          "phase": 3
        },
        "condition_band": "GOOD"
      }
    },
    {
      "type": "Feature",
      "geometry": {
        "type": "Point",
        "coordinates": [
          85.7965,
          20.3455
        ]
      },
      "properties": {
        "asset_id": "TR-0405",
        "name": "Distribution Transformer 5 Patia",
        "asset_type": "transformer",
        "latitude": 20.3455,
        "longitude": 85.7965,
        "elevation_m": 48.0,
        "surveyed_on": "2026-09-14",
        "surveyor": "Anita Das",
        "status": "active",
        "condition_score": 10,
        "attributes": {
          "kva": 250,
          "phase": 3
        },
        "condition_band": "GOOD"
      }
    },
    {
      "type": "Feature",
      "geometry": {
        "type": "Point",
        "coordinates": [
          85.7978,
          20.3466
        ]
      },
      "properties": {
        "asset_id": "TR-0406",
        "name": "Distribution Transformer 6 Patia",
        "asset_type": "transformer",
        "latitude": 20.3466,
        "longitude": 85.7978,
        "elevation_m": 48.0,
        "surveyed_on": "2026-09-14",
        "surveyor": "Anita Das",
        "status": "active",
        "condition_score": 5,
        "attributes": {
          "kva": 250,
          "phase": 3
        },
        "condition_band": "FAIR"
      }
    },
    {
      "type": "Feature",
      "geometry": {
        "type": "Point",
        "coordinates": [
          85.7991,
          20.3477
        ]
      },
      "properties": {
        "asset_id": "TR-0407",
        "name": "Distribution Transformer 7 Patia",
        "asset_type": "transformer",
        "latitude": 20.3477,
        "longitude": 85.7991,
        "elevation_m": 48.0,
        "surveyed_on": "2026-09-14",
        "surveyor": "Anita Das",
        "status": "active",
        "condition_score": 6,
        "attributes": {
          "kva": 250,
          "phase": 3
        },
        "condition_band": "FAIR"
      }
    },
    {
      "type": "Feature",
      "geometry": {
        "type": "Point",
        "coordinates": [
          85.8004,
          20.3488
        ]
      },
      "properties": {
        "asset_id": "TR-0408",
        "name": "Distribution Transformer 8 Patia",
        "asset_type": "transformer",
        "latitude": 20.3488,
        "longitude": 85.8004,
        "elevation_m": 48.0,
        "surveyed_on": "2026-09-14",
        "surveyor": "Anita Das",
        "status": "active",
        "condition_score": 7,
        "attributes": {
          "kva": 250,
          "phase": 3
        },
        "condition_band": "FAIR"
      }
    },
    {
      "type": "Feature",
      "geometry": {
        "type": "Point",
        "coordinates": [
          85.8017,
          20.3499
        ]
      },
      "properties": {
        "asset_id": "TR-0409",
        "name": "Distribution Transformer 9 Patia",
        "asset_type": "transformer",
        "latitude": 20.3499,
        "longitude": 85.8017,
        "elevation_m": 48.0,
        "surveyed_on": "2026-09-14",
        "surveyor": "Anita Das",
        "status": "active",
        "condition_score": 8,
        "attributes": {
          "kva": 250,
          "phase": 3
        },
        "condition_band": "GOOD"
      }
    }
  ]
}